[{"OBJECT_NAME":"CARTOSAT-2C","OBJECT_ID":"2016-040A","EPOCH":"2026-03-09T22:26:22.952832","MEAN_MOTION":15.19225576,"ECCENTRICITY":0.00104304,"INCLINATION":97.4605,"RA_OF_ASC_NODE":130.2157,"ARG_OF_PERICENTER":119.7256,"MEAN_ANOMALY":240.5018,"EPHEMERIS_TYPE":0,"CLASSIFICATION_TYPE":"U","NORAD_CAT_ID":41599,"ELEMENT_SET_NO":999,"REV_AT_EPOCH":53864,"BSTAR":0.0002054492,"MEAN_MOTION_DOT":4.264e-5,"MEAN_MOTION_DDOT":0},{"OBJECT_NAME":"STARLINK-2101","OBJECT_ID":"2021-005AJ","EPOCH":"2026-03-09T22:00:01.999584","MEAN_MOTION":15.16034978,"ECCENTRICITY":0.00012406,"INCLINATION":53.0957,"RA_OF_ASC_NODE":35.4622,"ARG_OF_PERICENTER":102.7891,"MEAN_ANOMALY":195.0819,"EPHEMERIS_TYPE":0,"CLASSIFICATION_TYPE":"U","NORAD_CAT_ID":47381,"ELEMENT_SET_NO":999,"REV_AT_EPOCH":573,"BSTAR":0.052963497,"MEAN_MOTION_DOT":0.0111761,"MEAN_MOTION_DDOT":0}]
